stk.v.4.3 

BEGIN Ephemeris 
 
NumberOfEphemerisPoints		146 
ScenarioEpoch	    4 Sep 2020  4:37:58.096984327 
InterpolationMethod		Lagrange 
InterpolationOrder		5 
CentralBody				Earth 
CoordinateSystem			TEME 
CoordinateSystemEpoch	  4 Sep 2020  4:37:58.096984327 
DistanceUnit			Kilometers 
 
EphemerisTimePosVel 
 
       0.00000000   -5627.04099629   -4380.88235511       0.04373747  0.296239292 -0.355732052  7.458989379
 END Ephemeris 
